NORAD_CAT_ID,OBJECT_NAME,OBJECT_TYPE,EPOCH,MEAN_MOTION,ECCENTRICITY,INCLINATION,RA_OF_ASC_NODE,ARG_OF_PERICENTER,MEAN_ANOMALY,BSTAR,MEAN_MOTION_DOT,MEAN_MOTION_DDOT,TLE_LINE0,TLE_LINE1,TLE_LINE2,SEMIMAJOR_AXIS,PERIOD,APOGEE,PERIGEE,DECAYED
56792.0,STARLINK-6046,PAYLOAD,2023-11-16 16:35:18,14.98356169,0.0002175,70.0006,312.6251,274.1732,85.9179,-0.0004703,-5.703e-05,0.0,0 STARLINK-6046,1 56792U 23078AB  23320.69119198 -.00005703  00000-0 -47030-3 0  9997,2 56792  70.0006 312.6251 0002175 274.1732  85.9179 14.98356169 26510,6950.112,96.105,573.489,570.465,0.0
56792.0,STARLINK-6046,PAYLOAD,2023-11-17 00:35:59,14.98328186,0.0002464,70.0004,311.7838,261.1595,98.9285,2.6222e-05,2.2e-06,0.0,0 STARLINK-6046,1 56792U 23078AB  23321.02499580  .00000220  00000-0  26222-4 0  9999,2 56792  70.0004 311.7838 0002464 261.1595  98.9285 14.98328186 26568,6950.199,96.107,573.776,570.351,0.0
56792.0,STARLINK-6046,PAYLOAD,2023-11-17 10:12:50,14.98297478,0.0002177,70.0004,310.7729,256.5245,103.5671,-0.00029452,-3.602e-05,0.0,0 STARLINK-6046,1 56792U 23078AB  23321.42558217 -.00003602  00000-0 -29452-3 0  9992,2 56792  70.0004 310.7729 0002177 256.5245 103.5671 14.98297478 26625,6950.293,96.109,573.672,570.645,0.0
56792.0,STARLINK-6046,PAYLOAD,2023-11-17 16:37:20,14.98329402,0.0002369,70.0005,310.0995,277.6845,82.4044,4.1162e-06,-4.4e-07,0.0,0 STARLINK-6046,1 56792U 23078AB  23321.69259715 -.00000044  00000-0  41162-5 0  9992,2 56792  70.0005 310.0995 0002369 277.6845  82.4044 14.98329402 26663,6950.195,96.107,573.706,570.413,0.0
56792.0,STARLINK-6046,PAYLOAD,2023-11-18 10:14:46,14.98362135,0.0002651,69.9999,308.2467,260.2826,99.8034,0.00044876,5.27e-05,0.0,0 STARLINK-6046,1 56792U 23078AB  23322.42692430  .00005270  00000-0  44876-3 0  9997,2 56792  69.9999 308.2467 0002651 260.2826  99.8034 14.98362135 26779,6950.094,96.105,573.801,570.116,0.0
56792.0,STARLINK-6046,PAYLOAD,2023-11-18 16:39:21,14.98329507,0.0002665,69.9996,307.5734,268.8154,91.27,9.63e-06,2.2e-07,0.0,0 STARLINK-6046,1 56792U 23078AB  23322.69399453  .00000022  00000-0  96300-5 0  9996,2 56792  69.9996 307.5734 0002665 268.8154  91.2700 14.98329507 26815,6950.194,96.107,573.912,570.207,0.0
56792.0,STARLINK-6046,PAYLOAD,2023-11-19 08:40:41,14.98330888,0.0002656,69.9993,305.89,269.2055,90.88,-4.928e-06,-1.52e-06,0.0,0 STARLINK-6046,1 56792U 23078AB  23323.36159375 -.00000152  00000-0 -49280-5 0  9999,2 56792  69.9993 305.8900 0002656 269.2055  90.8800 14.98330888 26655,6950.19,96.107,573.901,570.209,0.0
56792.0,STARLINK-6046,PAYLOAD,2023-11-20 03:54:22,14.98268133,0.0002341,70.0005,303.8706,230.5265,129.5687,-0.00071788,-8.634e-05,0.0,0 STARLINK-6046,1 56792U 23078AB  23324.16276620 -.00008634  00000-0 -71788-3 0  9990,2 56792  70.0005 303.8706 0002341 230.5265 129.5687 14.98268133 27038,6950.384,96.111,573.876,570.622,0.0
56792.0,STARLINK-6046,PAYLOAD,2023-11-20 08:42:42,14.98324629,0.0002512,69.999,303.3651,269.1379,90.9493,0.00023997,2.771e-05,0.0,0 STARLINK-6046,1 56792U 23078AB  23324.36299062  .00002771  00000-0  23997-3 0  9990,2 56792  69.9990 303.3651 0002512 269.1379  90.9493 14.98324629 27068,6950.21,96.107,573.82,570.329,0.0
56792.0,STARLINK-6046,PAYLOAD,2023-11-21 08:44:43,14.9831751,0.0002316,69.9994,300.8414,258.2971,101.7929,0.00025772,2.982e-05,0.0,0 STARLINK-6046,1 56792U 23078AB  23325.36439343  .00002982  00000-0  25772-3 0  9996,2 56792  69.9994 300.8414 0002316 258.2971 101.7929 14.98317510 27213,6950.232,96.108,573.706,570.487,0.0
56792.0,STARLINK-6046,PAYLOAD,2023-11-21 21:33:47,14.9838967,0.0001644,69.9994,299.4956,243.0828,117.0163,-0.00098832,-0.00011883,0.0,0 STARLINK-6046,1 56792U 23078AB  23325.89847050 -.00011883  00000-0 -98832-3 0  9991,2 56792  69.9994 299.4956 0001644 243.0828 117.0163 14.98389670 27039,6950.008,96.103,573.016,570.731,0.0
56792.0,STARLINK-6046,PAYLOAD,2023-11-22 03:58:20,14.98340565,0.0001461,69.9997,298.8213,232.0536,128.0491,-0.00019138,-2.376e-05,0.0,0 STARLINK-6046,1 56792U 23078AB  23326.16551068 -.00002376  00000-0 -19138-3 0  9992,2 56792  69.9997 298.8213 0001461 232.0536 128.0491 14.98340565 27331,6950.16,96.106,573.041,571.01,0.0
56792.0,STARLINK-6046,PAYLOAD,2023-11-22 07:10:35,14.98380417,0.000154,69.9998,298.4846,251.71,108.3892,-0.00083888,-0.000101,0.0,0 STARLINK-6046,1 56792U 23078AB  23326.29902054 -.00010100  00000-0 -83888-3 0  9998,2 56792  69.9998 298.4846 0001540 251.7100 108.3892 14.98380417 27351,6950.037,96.104,572.972,570.832,0.0
56792.0,STARLINK-6046,PAYLOAD,2023-11-23 04:00:21,14.98323968,0.0002444,70.0005,296.2992,244.0231,116.0676,-4.6475e-05,-6.47e-06,0.0,0 STARLINK-6046,1 56792U 23078AB  23327.16691506 -.00000647  00000-0 -46475-4 0  9999,2 56792  70.0005 296.2992 0002444 244.0231 116.0676 14.98323968 27483,6950.212,96.107,573.775,570.378,0.0
56792.0,STARLINK-6046,PAYLOAD,2023-11-23 07:12:37,14.98325096,0.0002439,70.0003,295.9624,243.2482,116.8428,-3.3808e-05,-4.96e-06,0.0,0 STARLINK-6046,1 56792U 23078AB  23327.30043435 -.00000496  00000-0 -33808-4 0  9995,2 56792  70.0003 295.9624 0002439 243.2482 116.8428 14.98325096 27243,6950.208,96.107,573.768,570.378,0.0
56792.0,STARLINK-6046,PAYLOAD,2023-11-23 21:37:50,14.98324386,0.000233,70.0002,294.4456,259.9862,100.1034,1.3554e-05,6.9e-07,0.0,0 STARLINK-6046,1 56792U 23078AB  23327.90127536  .00000069  00000-0  13554-4 0  9996,2 56792  70.0002 294.4456 0002330 259.9862 100.1034 14.98324386 27335,6950.21,96.107,573.695,570.456,0.0
56792.0,STARLINK-6046,PAYLOAD,2023-11-24 04:02:22,14.98322812,0.0002453,69.9999,293.7722,262.1702,97.9179,-1.7247e-05,-2.99e-06,0.0,0 STARLINK-6046,1 56792U 23078AB  23328.16831817 -.00000299  00000-0 -17247-4 0  9999,2 56792  69.9999 293.7722 0002453 262.1702  97.9179 14.98322812 27638,6950.215,96.107,573.785,570.375,0.0
56792.0,STARLINK-6046,PAYLOAD,2023-11-24 07:14:38,14.98325016,0.0002221,70.0003,293.4351,277.5132,82.5774,-1.0775e-05,-2.21e-06,0.0,0 STARLINK-6046,1 56792U 23078AB  23328.30183880 -.00000221  00000-0 -10775-4 0  9999,2 56792  70.0003 293.4351 0002221 277.5132  82.5774 14.98325016 27395,6950.208,96.107,573.617,570.53,0.0
56792.0,STARLINK-6046,PAYLOAD,2023-11-24 21:39:51,14.98326134,0.0002833,69.9988,291.9195,268.5127,91.5707,3.4071e-05,3.14e-06,0.0,0 STARLINK-6046,1 56792U 23078AB  23328.90267583  .00000314  00000-0  34071-4 0  9994,2 56792  69.9988 291.9195 0002833 268.5127  91.5707 14.98326134 27484,6950.205,96.107,574.039,570.101,0.0
56792.0,STARLINK-6046,PAYLOAD,2023-11-25 04:04:23,14.9832952,0.0002575,69.9994,291.2467,262.0571,98.0296,7.3842e-05,7.88e-06,0.0,0 STARLINK-6046,1 56792U 23078AB  23329.16971248  .00000788  00000-0  73842-4 0  9997,2 56792  69.9994 291.2467 0002575 262.0571  98.0296 14.98329520 27781,6950.194,96.107,573.849,570.27,0.0
56792.0,STARLINK-6046,PAYLOAD,2023-11-25 07:16:38,14.98334221,0.0002569,69.9995,290.9098,259.6062,100.4807,0.00014762,1.669e-05,0.0,0 STARLINK-6046,1 56792U 23078AB  23329.30322748  .00001669  00000-0  14762-3 0  9992,2 56792  69.9995 290.9098 0002569 259.6062 100.4807 14.98334221 27542,6950.18,96.107,573.83,570.259,0.0
56792.0,STARLINK-6046,PAYLOAD,2023-11-25 21:41:51,14.98331688,0.0002188,70.0005,289.3963,269.5935,90.4973,0.00012225,1.366e-05,0.0,0 STARLINK-6046,1 56792U 23078AB  23329.90406928  .00001366  00000-0  12225-3 0  9997,2 56792  70.0005 289.3963 0002188 269.5935  90.4973 14.98331688 27632,6950.188,96.107,573.573,570.532,0.0
56792.0,STARLINK-6046,PAYLOAD,2023-11-26 07:18:39,14.98338692,0.0002416,70.001,288.3848,276.9229,83.1655,0.00012617,1.413e-05,0.0,0 STARLINK-6046,1 56792U 23078AB  23330.30462366  .00001413  00000-0  12617-3 0  9999,2 56792  70.0010 288.3848 0002416 276.9229  83.1655 14.98338692 27954,6950.166,96.106,573.71,570.352,0.0
56792.0,STARLINK-6046,PAYLOAD,2023-11-26 21:43:53,14.98329083,0.0001682,70.0045,286.8733,299.4617,60.6374,-7.0152e-05,-9.3e-06,0.0,0 STARLINK-6046,1 56792U 23078AB  23330.90547802 -.00000930  00000-0 -70152-4 0  9998,2 56792  70.0045 286.8733 0001682 299.4617  60.6374 14.98329083 27786,6950.196,96.107,573.23,570.892,0.0
56792.0,STARLINK-6046,PAYLOAD,2023-11-27 04:08:27,14.98315689,0.0002063,70.0013,286.1978,254.4822,105.6109,-0.00042724,-5.185e-05,0.0,0 STARLINK-6046,1 56792U 23078AB  23331.17253482 -.00005185  00000-0 -42724-3 0  9996,2 56792  70.0013 286.1978 0002063 254.4822 105.6109 14.98315689 28085,6950.237,96.108,573.536,570.668,0.0
56792.0,STARLINK-6046,PAYLOAD,2023-11-27 07:20:43,14.98309278,0.0002323,70.0007,285.8606,267.7296,92.3597,-0.00021237,-2.624e-05,0.0,0 STARLINK-6046,1 56792U 23078AB  23331.30605526 -.00002624  00000-0 -21237-3 0  9992,2 56792  70.0007 285.8606 0002323 267.7296  92.3597 14.98309278 27846,6950.257,96.108,573.737,570.507,0.0
56792.0,STARLINK-6046,PAYLOAD,2023-11-27 20:09:46,14.98327979,0.0002193,70.0006,284.5144,268.0235,92.0673,-8.496e-05,-1.106e-05,0.0,0 STARLINK-6046,1 56792U 23078AB  23331.84012335 -.00001106  00000-0 -84960-4 0  9998,2 56792  70.0006 284.5144 0002193 268.0235  92.0673 14.98327979 28188,6950.199,96.107,573.588,570.54,0.0
56792.0,STARLINK-6046,PAYLOAD,2023-11-27 21:45:53,14.98350645,0.0002393,70.0004,284.3456,262.6144,97.4744,-0.00011868,-1.509e-05,0.0,0 STARLINK-6046,1 56792U 23078AB  23331.90687158 -.00001509  00000-0 -11868-3 0  9999,2 56792  70.0004 284.3456 0002393 262.6144  97.4744 14.98350645 27937,6950.129,96.106,573.657,570.331,0.0
56792.0,STARLINK-6046,PAYLOAD,2023-11-28 07:22:42,14.98337495,0.000219,70.0007,283.3354,276.4904,83.6006,5.9143e-05,6.13e-06,0.0,0 STARLINK-6046,1 56792U 23078AB  23332.30743414  .00000613  00000-0  59143-4 0  9994,2 56792  70.0007 283.3354 0002190 276.4904  83.6006 14.98337495 28250,6950.17,96.107,573.557,570.513,0.0
56792.0,STARLINK-6046,PAYLOAD,2023-11-28 20:11:46,14.98350016,0.0002029,70.001,281.9901,274.8508,85.2419,-0.00015284,-1.917e-05,0.0,0 STARLINK-6046,1 56792U 23078AB  23332.84151451 -.00001917  00000-0 -15284-3 0  9994,2 56792  70.0010 281.9901 0002029 274.8508  85.2419 14.98350016 28079,6950.131,96.106,573.406,570.586,0.0
